[{"OBJECT_NAME":"GEESAT-5 11","OBJECT_ID":"2025-201L","EPOCH":"2026-03-09T16:20:00.938688","MEAN_MOTION":14.8375843,"ECCENTRICITY":0.00089326,"INCLINATION":49.9859,"RA_OF_ASC_NODE":140.356,"ARG_OF_PERICENTER":317.2651,"MEAN_ANOMALY":42.7591,"EPHEMERIS_TYPE":0,"CLASSIFICATION_TYPE":"U","NORAD_CAT_ID":65560,"ELEMENT_SET_NO":999,"REV_AT_EPOCH":2704,"BSTAR":0.00034705085,"MEAN_MOTION_DOT":2.678e-5,"MEAN_MOTION_DDOT":0},{"OBJECT_NAME":"SS-18 R\/B","OBJECT_ID":"1999-021C","EPOCH":"2026-03-09T09:15:45.322272","MEAN_MOTION":13.73024449,"ECCENTRICITY":0.05595907,"INCLINATION":64.5537,"RA_OF_ASC_NODE":57.4722,"ARG_OF_PERICENTER":331.1631,"MEAN_ANOMALY":25.9515,"EPHEMERIS_TYPE":0,"CLASSIFICATION_TYPE":"U","NORAD_CAT_ID":25695,"ELEMENT_SET_NO":999,"REV_AT_EPOCH":34627,"BSTAR":0.00018610859,"MEAN_MOTION_DOT":4.28e-6,"MEAN_MOTION_DDOT":0}]
